AII-BRAVO               
1 48270U 21034C   26068.69561509  .00006142  00000+0  46527-3 0  9993
2 48270  97.5758 125.8704 0005372 233.3237 126.7495 15.02621336264679
STARLINK-6288           
1 56398U 23061AA  26067.64148481 -.00000377  00000+0 -12825-4 0  9990
2 56398  43.0027 190.4528 0001173 273.0926  86.9782 15.02531108156748
